STARLINK-3366           
1 51104U 22005A   22048.25001157 -.00047894  00000+0 -33789-3 0  9993
2 51104  53.2169 129.9556 0002535  20.4792  18.9861 15.73255716  5915
STARLINK-3350           
1 51105U 22005B   22047.91667824 -.00031846  00000+0 -22288-3 0  9997
2 51105  53.2158 131.6179 0002722  19.8480 283.6758 15.73241881  3685
STARLINK-3176           
1 51106U 22005C   22047.91667824 -.00020567  00000+0 -14203-3 0  9994
2 51106  53.2156 131.6124 0002741  16.1262 291.1431 15.73265500  3713
STARLINK-3368           
1 51107U 22005D   22048.25001157  .00052104  00000+0  37322-3 0  9991
2 51107  53.2156 129.9695 0002395  24.1986   7.7180 15.73207186  5916
STARLINK-3362           
1 51108U 22005E   22048.25001157  .00054186  00000+0  38791-3 0  9995
2 51108  53.2162 129.9677 0002503  22.4939  10.6216 15.73203744  5902
STARLINK-3358           
1 51109U 22005F   22048.25001157 -.00038895  00000+0 -27328-3 0  9991
2 51109  53.2161 129.2266 0002404  17.2176  11.8008 15.73255748  5929
STARLINK-3344           
1 51110U 22005G   22047.91667824  .00007282  00000+0  56208-4 0  9998
2 51110  53.2158 131.6148 0002934  21.9107 283.5065 15.73224239  3680
STARLINK-3173           
1 51111U 22005H   22048.25001157 -.00033038  00000+0 -23138-3 0  9993
2 51111  53.2162 129.9553 0002717  11.2305  27.5829 15.73245705  5910
STARLINK-3374           
1 51112U 22005J   22048.25001157  .00018236  00000+0  13378-3 0  9990
2 51112  53.2157 129.9634 0002681   9.6034  25.3284 15.73249428  5912
STARLINK-3372           
1 51113U 22005K   22048.25001157 -.00072513  00000+0 -51528-3 0  9990
2 51113  53.2165 129.9592 0002570  20.5672  16.3177 15.73258787  5911
STARLINK-3375           
1 51114U 22005L   22048.25001157 -.00017632  00000+0 -12120-3 0  9997
2 51114  53.2163 129.9664 0002633   9.7900  23.9513 15.73244819  5912
STARLINK-3397           
1 51115U 22005M   22048.25001157  .00049238  00000+0  35287-3 0  9992
2 51115  53.2163 129.9562 0002633  16.0951  22.0984 15.73218619  5918
STARLINK-3243           
1 51116U 22005N   22047.91667824  .00005616  00000+0  44380-4 0  9991
2 51116  53.2162 131.6130 0002795  23.1727 283.4554 15.73220832  3686
STARLINK-3391           
1 51117U 22005P   22048.25001157 -.00051843  00000+0 -36635-3 0  9999
2 51117  53.2162 129.9518 0002757  14.0022  26.6533 15.73250540  5913
STARLINK-3394           
1 51118U 22005Q   22048.25001157  .00046837  00000+0  33616-3 0  9991
2 51118  53.2151 129.9602 0002749  13.9981  23.5604 15.73205225  5914
STARLINK-3390           
1 51119U 22005R   22047.91667824 -.00055523  00000+0 -39242-3 0  9998
2 51119  53.2171 131.5994 0002687  26.8575 285.5073 15.73275663  5860
STARLINK-3398           
1 51120U 22005S   22048.25001157 -.00057000  00000+0 -40373-3 0  9998
2 51120  53.2164 129.9475 0002517  16.9532  25.6507 15.73237464  5912
STARLINK-3399           
1 51121U 22005T   22047.91667824 -.00035386  00000+0 -24817-3 0  9998
2 51121  53.2159 131.6032 0002960  10.7184 300.3772 15.73248154  3714
STARLINK-3373           
1 51122U 22005U   22048.25001157 -.00018359  00000+0 -12646-3 0  9996
2 51122  53.2161 129.9497 0002412  14.4884  27.4679 15.73233789  5918
STARLINK-3392           
1 51123U 22005V   22047.91667824  .00006145  00000+0  48125-4 0  9998
2 51123  53.2161 131.5961 0002676  10.1824 304.0465 15.73225576  3711
STARLINK-3389           
1 51124U 22005W   22047.91667824  .00004802  00000+0  38598-4 0  9990
2 51124  53.2159 131.5956 0002759   9.3056 305.6237 15.73213806  3719
STARLINK-3387           
1 51125U 22005X   22047.91667824  .00009497  00000+0  71990-4 0  9999
2 51125  53.2164 131.5910 0002510  12.4958 304.2506 15.73206087  3714
STARLINK-3386           
1 51126U 22005Y   22047.91667824 -.00023836  00000+0 -16558-3 0  9993
2 51126  53.2163 131.5943 0002692  20.9563 294.5619 15.73237473  3716
STARLINK-3370           
1 51127U 22005Z   22047.91667824 -.00057361  00000+0 -40566-3 0  9990
2 51127  53.2170 131.5903 0002851  10.3410 305.7543 15.73274163  3710
STARLINK-3400           
1 51128U 22005AA  22047.91667824 -.00096363  00000+0 -68719-3 0  9996
2 51128  53.2159 131.5836 0002785  14.4988 306.0302 15.73290596  3719
STARLINK-3396           
1 51129U 22005AB  22048.25001157  .00053368  00000+0  38226-3 0  9992
2 51129  53.2204 128.4259 0001886  39.4901  23.4607 15.73199143  5938
STARLINK-3395           
1 51130U 22005AC  22047.91667824 -.00053943  00000+0 -38099-3 0  9994
2 51130  53.2159 131.5899 0002677  13.6973 303.6148 15.73279849  3715
STARLINK-3388           
1 51131U 22005AD  22047.91667824 -.00056943  00000+0 -40271-3 0  9993
2 51131  53.2173 131.5844 0002550  20.5214 298.7518 15.73272197  3711
STARLINK-3393           
1 51132U 22005AE  22047.91667824  .00010375  00000+0  78162-4 0  9992
2 51132  53.2171 131.5891 0002818  19.0105 299.6184 15.73226309  3714
STARLINK-3356           
1 51133U 22005AF  22048.25001157  .00044588  00000+0  32028-3 0  9995
2 51133  53.2175 129.9292 0002717  21.8669  28.3035 15.73207983  5912
STARLINK-3183           
1 51134U 22005AG  22047.91667824 -.00021683  00000+0 -15004-3 0  9995
2 51134  53.2120 130.8664 0002845  11.0361 290.1495 15.73258117  3696
STARLINK-3363           
1 51135U 22005AH  22048.25001157 -.00054665  00000+0 -38691-3 0  9998
2 51135  53.2172 129.9280 0002572  19.3662  31.4702 15.73236613  5910
STARLINK-3253           
1 51136U 22005AJ  22043.57372980 -.00281505  00000+0 -12166-2 0  9997
2 51136  53.2206 151.2415 0001593  42.5671 317.5477 15.84870528  5207
STARLINK-3180           
1 51137U 22005AK  22047.91667824  .00008986  00000+0  68292-4 0  9995
2 51137  53.2156 131.5748 0002870  23.6853 300.5887 15.73231237  3710
STARLINK-3177           
1 51138U 22005AL  22048.25001157 -.00056942  00000+0 -40315-3 0  9997
2 51138  53.2180 129.9285 0002731  20.5600  30.8373 15.73245641  5918
STARLINK-3172           
1 51139U 22005AM  22048.25001157 -.00055721  00000+0 -39426-3 0  9993
2 51139  53.2178 129.9229 0002701  17.7152  36.8249 15.73251254  5916
STARLINK-3175           
1 51140U 22005AN  22047.91667824  .00011540  00000+0  86495-4 0  9994
2 51140  53.2175 131.5757 0002884  17.7342 305.9803 15.73208885  3717
STARLINK-3179           
1 51141U 22005AP  22048.25001157 -.00047604  00000+0 -33585-3 0  9997
2 51141  53.2179 129.9185 0002795  21.4046  34.3974 15.73251126  5914
STARLINK-3369           
1 51142U 22005AQ  22047.91667824  .00010703  00000+0  80565-4 0  9998
2 51142  53.2167 131.5777 0002666  11.0317 312.0616 15.73205691  3712
STARLINK-3184           
1 51143U 22005AR  22047.91667824 -.00226670  00000+0 -18718-2 0  9992
2 51143  53.2175 131.5524 0007093 283.9032  35.8177 15.70243095  3680
STARLINK-3185           
1 51144U 22005AS  22047.91667824  .00005603  00000+0  44261-4 0  9996
2 51144  53.2160 131.5714 0002954  17.6048 308.5345 15.73234330  3688
STARLINK-3365           
1 51145U 22005AT  22048.25001157 -.00460962  00000+0 -39495-2 0  9992
2 51145  53.2170 129.9060 0006101 279.5794 127.0724 15.70061268  5918
STARLINK-3354           
1 51146U 22005AU  22047.91667824  .00006454  00000+0  50334-4 0  9991
2 51146  53.2165 131.5736 0002897  19.0799 305.8879 15.73221316  3686
STARLINK-3352           
1 51147U 22005AV  22047.91667824 -.00569857  00000+0 -44596-2 0  9996
2 51147  53.2175 131.5559 0002326   8.8651 318.6640 15.72547392  3683
STARLINK-3359           
1 51148U 22005AW  22048.25001157 -.00534943  00000+0 -45903-2 0  9997
2 51148  53.2169 129.9055 0006303 278.3781 129.7576 15.70233536  5913
STARLINK-3360           
1 51149U 22005AX  22048.25001157 -.00411914  00000+0 -34776-2 0  9996
2 51149  53.2171 129.9042 0006887 282.3682 127.2925 15.70262728  5911
STARLINK-3357           
1 51150U 22005AY  22048.25001157 -.00058012  00000+0 -41077-3 0  9997
2 51150  53.2172 129.9189 0002807  22.5245  33.9637 15.73250238  5912
STARLINK-3361           
1 51151U 22005AZ  22048.25001157 -.00494678  00000+0 -41669-2 0  9996
2 51151  53.2170 129.9022 0006677 281.6310 130.8531 15.70555178  5915
STARLINK-3364           
1 51152U 22005BA  22047.91667824 -.00652731  00000+0 -55041-2 0  9993
2 51152  53.2174 131.5452 0002614 322.2195   2.7594 15.71023730  3713
L-SAR 01A               
1 51284U 22007A   22048.13903516  .00000684  00000+0  79676-4 0  9991
2 51284  97.8088  57.2230 0001746  91.0924 269.0466 14.88422897  3294
CZ-4C R/B               
1 51285U 22007B   22047.75273130  .00004108  00000+0  18101-3 0  9991
2 51285  97.8450  57.8793 0122904 317.0213  42.1466 15.15836953  3293
CZ-4C DEB               
1 51286U 22007C   22041.98973314  .01050619  00000+0  15362+0 0  9993
2 51286  97.7903  50.4506 0110633 154.4635 206.2095 14.68505393  2348
ASCENT                  
1 51287U 21118E   22037.20605106 -.00000057  00000+0  00000+0 0  9991
2 51287   0.1323 113.8875 0002651 136.3445 187.7236  1.01234817   200
ELSA-D CLIENT           
1 51288U 21022AQ  22047.90503854  .00002089  00000+0  14277-3 0  9992
2 51288  97.5398 310.2988 0018290 185.0757 175.0288 15.07107001  3401
GASPACS                 
1 51439U 98067TB  22048.15621003  .00078420  00000+0  12270-2 0  9990
2 51439  51.6393 210.7352 0005715 147.4640 212.6703 15.53041660  3392
1998-067TC              
1 51440U 98067TC  22047.76383867  .00095480  00000+0  14401-2 0  9994
2 51440  51.6392 212.6146 0005109 149.1161 211.0131 15.53968371  3394
1998-067TD              
1 51441U 98067TD  22047.71497815  .00024414  00000+0  41386-3 0  9991
2 51441  51.6399 213.0377 0007557 152.9023 207.2362 15.51348597  3372
1998-067TE              
1 51442U 98067TE  22047.71290881  .00025497  00000+0  42942-3 0  9997
2 51442  51.6397 213.0237 0007673 159.4681 200.6618 15.51503768  3337
DAILI                   
1 51443U 98067TF  22047.70393670  .00056146  00000+0  88891-3 0  9995
2 51443  51.6397 212.9648 0008056 142.8918 217.2630 15.52841369  3293
